[ {"name": "STARLINK-31142", "line1": "1 58779U 24011Q   26188.38625492 -.00000808  00000+0 -15176-4 0  9999", "line2": "2 58779  53.1576 177.8831 0000766 103.8208 256.2878 15.30180150138599"}, {"name": "STARLINK-31099", "line1": "1 58781U 24011S   26188.38308734 -.00001247  00000+0 -29993-4 0  9999", "line2": "2 58781  53.1589 177.8625 0001031  97.9500 262.1617 15.30188081138599"}, {"name": "STARLINK-31047", "line1": "1 58783U 24011U   26188.39657794  .00000131  00000+0  15002-4 0  9990", "line2": "2 58783  53.1594 160.4575 0000847  65.9378 294.1713 15.34376726138839"}, {"name": "STARLINK-31039", "line1": "1 58784U 24011V   26188.37671448  .00004601  00000+0  16727-3 0  9991", "line2": "2 58784  53.1587 177.8215 0001628  75.8336 284.2846 15.30222011138590"}, {"name": "STARLINK-31034", "line1": "1 58785U 24011W   26188.10343698  .00012799  00000+0  38943-3 0  9997", "line2": "2 58785  53.1594  74.5100 0001882 101.7253 258.3961 15.34387555140046"}, {"name": "STARLINK-31024", "line1": "1 58786U 24011X   26187.98962220 -.00003633  00000+0 -11071-3 0  9993", "line2": "2 58786  53.1581 177.5652 0000686  69.5725 290.5349 15.30170640138568"}, {"name": "STARLINK-31189", "line1": "1 58787U 24012A   26188.10766619 -.00001414  00000+0 -41871-4 0  9991", "line2": "2 58787  43.0044 210.4790 0001667 283.0012  77.0654 15.27561594139503"}, {"name": "STARLINK-31185", "line1": "1 58788U 24012B   26188.42574251 -.00003817  00000+0 -12931-3 0  9999", "line2": "2 58788  42.9974 209.4224 0000636 299.6460  60.4328 15.27567263139546"}, {"name": "STARLINK-31166", "line1": "1 58789U 24012C   26188.38593183 -.00000243  00000+0  70845-6 0  9990", "line2": "2 58789  43.0043 209.1279 0002349 304.1729  55.8900 15.27550736139547"}, {"name": "STARLINK-31187", "line1": "1 58790U 24012D   26188.09753797 -.00002448  00000+0 -79504-4 0  9998", "line2": "2 58790  43.0035 211.2571 0002123 265.4836  94.5773 15.27560660139496"}, {"name": "STARLINK-31162", "line1": "1 58791U 24012E   26188.12308722 -.00000276  00000+0 -51275-6 0  9991", "line2": "2 58791  43.0009 210.5977 0001147 252.3128 107.7598 15.27560636139501"}, {"name": "STARLINK-31184", "line1": "1 58793U 24012G   26188.44486058 -.00003707  00000+0 -12525-3 0  9991", "line2": "2 58793  43.0032 208.7093 0002113 282.4144  77.6471 15.27573092139553"}, {"name": "STARLINK-31192", "line1": "1 58794U 24012H   26188.09495880 -.00001529  00000+0 -46063-4 0  9991", "line2": "2 58794  43.0007 211.2326 0001427 276.4331  83.6358 15.27566762139492"}, {"name": "STARLINK-31161", "line1": "1 58795U 24012J   26188.44744013 -.00000409  00000+0 -53181-5 0  9992", "line2": "2 58795  43.0028 208.7277 0001681 273.5211  86.5449 15.27576250139552"}, {"name": "STARLINK-31195", "line1": "1 58796U 24012K   26188.10267313  .00002329  00000+0  94207-4 0  9993", "line2": "2 58796  43.0017 211.2928 0000929 190.7522 169.3309 15.27546880139496"}, {"name": "STARLINK-31193", "line1": "1 58797U 24012L   26188.39105749 -.00001807  00000+0 -56160-4 0  9997", "line2": "2 58797  43.0039 209.1641 0001848 285.5162  74.5485 15.27567256139541"}, {"name": "STARLINK-31168", "line1": "1 58798U 24012M   26188.39490723 -.00006491  00000+0 -22662-3 0  9990", "line2": "2 58798  43.0006 209.1870 0001646 273.8512  86.2151 15.27571647139544"}, {"name": "STARLINK-31191", "line1": "1 58800U 24012P   26188.44097699  .00003762  00000+0  14602-3 0  9996", "line2": "2 58800  43.0013 208.6734 0001199 260.4797  99.5919 15.27611199139556"}, {"name": "STARLINK-31170", "line1": "1 58801U 24012Q   26188.07439595 -.00011301  00000+0 -40151-3 0  9999", "line2": "2 58801  42.9997 211.0800 0002024 279.0192  81.0431 15.27599662139499"}, {"name": "STARLINK-31141", "line1": "1 58803U 24012S   26188.41161127  .00002509  00000+0  10068-3 0  9994", "line2": "2 58803  43.0001 209.3093 0001146 262.6246  97.4475 15.27570123139541"}, {"name": "STARLINK-31188", "line1": "1 58804U 24012T   26188.14364861 -.00001764  00000+0 -54626-4 0  9998", "line2": "2 58804  43.0002 210.7396 0001355 270.6158  89.4539 15.27559247139500"}, {"name": "STARLINK-31138", "line1": "1 58806U 24012V   26188.14621453 -.00002530  00000+0 -82480-4 0  9994", "line2": "2 58806  43.0001 210.7545 0001614 284.0974  75.9698 15.27566123139507"}, {"name": "STARLINK-31163", "line1": "1 58807U 24012W   26188.43331647 -.00000533  00000+0 -98579-5 0  9998", "line2": "2 58807  43.0005 208.6122 0000615 273.1022  86.9759 15.27558434139553"}, {"name": "STARLINK-31174", "line1": "1 58808U 24012X   26188.49739613 -.00002786  00000+0 -91769-4 0  9995", "line2": "2 58808  43.0044 208.2302 0001837 261.6818  98.3825 15.27574846139562"}, {"name": "STARLINK-31169", "line1": "1 58809U 24012Y   26188.07697612 -.00002147  00000+0 -68559-4 0  9994", "line2": "2 58809  43.0003 211.0962 0001500 271.1979  88.8701 15.27561698139493"}, {"name": "STARLINK-31233", "line1": "1 58826U 24017A   26187.93272340 -.00001374  00000+0 -34286-4 0  9990", "line2": "2 58826  53.1621  10.3972 0001079  97.7017 262.4106 15.30193859138433"}, {"name": "STARLINK-31271", "line1": "1 58827U 24017B   26188.48162491  .00016721  00000+0  57509-3 0  9999", "line2": "2 58827  53.1618   8.1348 0001461  47.8826 312.2299 15.30217563138392"}, {"name": "STARLINK-31222", "line1": "1 58828U 24017C   26188.49416963  .00003473  00000+0  12939-3 0  9995", "line2": "2 58828  53.1605   7.4953 0000764 115.1620 244.9460 15.30179777138406"}, {"name": "STARLINK-31258", "line1": "1 58829U 24017D   26188.46157703  .00007959  00000+0  28072-3 0  9995", "line2": "2 58829  53.1587   8.0012 0000565 157.5447 202.5578 15.30178257138395"}, {"name": "STARLINK-31253", "line1": "1 58830U 24017E   26188.50602640  .00003585  00000+0  12725-3 0  9996", "line2": "2 58830  53.1621   6.8667 0001201  92.6997 267.4142 15.31699391138413"}, {"name": "STARLINK-31232", "line1": "1 58831U 24017F   26188.49669351  .00006313  00000+0  21522-3 0  9994", "line2": "2 58831  53.1604   6.8049 0001267  92.0309 268.0837 15.31671274138410"}, {"name": "STARLINK-31263", "line1": "1 58832U 24017G   26188.48944109  .00009693  00000+0  29761-3 0  9998", "line2": "2 58832  53.1583 356.1118 0000980 356.9450   3.1546 15.34401405138678"}, {"name": "STARLINK-31171", "line1": "1 58834U 24017J   26188.46988527  .00002090  00000+0  73037-4 0  9990", "line2": "2 58834  53.1593 344.2076 0001222  86.9393 273.1749 15.34373395138724"}, {"name": "STARLINK-31246", "line1": "1 58835U 24017K   26187.73359559  .00000105  00000+0  15662-4 0  9992", "line2": "2 58835  53.1601  11.2814 0001099  85.1530 274.9597 15.30195583138280"}, {"name": "STARLINK-31251", "line1": "1 58836U 24017L   26188.45944814  .00013790  00000+0  47655-3 0  9997", "line2": "2 58836  53.1597   7.9904 0001322 168.8170 191.2860 15.30220601138504"}, {"name": "STARLINK-31249", "line1": "1 58838U 24017N   26188.46583506 -.00001178  00000+0 -27721-4 0  9999", "line2": "2 58838  53.1628   8.0326 0002076  82.5119 277.6117 15.30121270138396"}, {"name": "STARLINK-31250", "line1": "1 58839U 24017P   26188.48523993  .00009980  00000+0  30612-3 0  9995", "line2": "2 58839  53.1602 356.0855 0000956 112.9448 247.1655 15.34399171138514"}, {"name": "STARLINK-31248", "line1": "1 58840U 24017Q   26188.50642803  .00005413  00000+0  17136-3 0  9995", "line2": "2 58840  53.1615  18.2091 0000464 115.5163 244.5888 15.34372493138366"}, {"name": "STARLINK-31236", "line1": "1 58841U 24017R   26188.47213128  .00006396  00000+0  22800-3 0  9991", "line2": "2 58841  53.1595   8.0690 0001048 107.4454 252.6661 15.30183172138390"}, {"name": "STARLINK-31228", "line1": "1 58842U 24017S   26187.68515812  .00001088  00000+0  48823-4 0  9996", "line2": "2 58842  53.1594  11.6914 0000995  91.7395 268.3719 15.30207973138279"}, {"name": "STARLINK-31280", "line1": "1 58843U 24017T   26187.95271911  .00002388  00000+0  92585-4 0  9994", "line2": "2 58843  53.1611  10.5152 0001263  72.2612 287.8526 15.30249205138318"}, {"name": "STARLINK-31269", "line1": "1 58844U 24017U   26188.18002291  .00000315  00000+0  22741-4 0  9999", "line2": "2 58844  53.1603  99.4238 0001164  92.4194 267.6940 15.30223482137066"}, {"name": "STARLINK-31264", "line1": "1 58845U 24017V   26188.26002135  .00025829  00000+0  88007-3 0  9999", "line2": "2 58845  53.1581  98.5094 0001184  95.6099 264.5036 15.30240391137085"}, {"name": "STARLINK-31273", "line1": "1 58846U 24017W   26188.50003471  .00027102  00000+0  83197-3 0  9992", "line2": "2 58846  53.1601   7.9489 0001181  78.6547  70.5271 15.33564990  5905"}, {"name": "STARLINK-31262", "line1": "1 58847U 24017X   26188.13678498  .00006769  00000+0  24051-3 0  9999", "line2": "2 58847  53.1580  99.1601 0002146  72.7152 287.4083 15.30195440137060"}, {"name": "STARLINK-31238", "line1": "1 58853U 24019A   26188.33829235  .00002877  00000+0  11411-3 0  9999", "line2": "2 58853  43.0061 292.9950 0001836 291.1305  68.9351 15.27559768137389"}, {"name": "STARLINK-31158", "line1": "1 58854U 24019B   26188.34471509  .00003478  00000+0  13589-3 0  9994", "line2": "2 58854  43.0054 293.0404 0002101 277.7700  82.2913 15.27576398137384"}, {"name": "STARLINK-31237", "line1": "1 58855U 24019C   26188.33315837  .00009789  00000+0  36469-3 0  9998", "line2": "2 58855  42.9910 292.9606 0006735 142.2782 217.8542 15.27576076137386"}, {"name": "STARLINK-31244", "line1": "1 58856U 24019D   26188.28448347  .00004633  00000+0  17781-3 0  9995", "line2": "2 58856  43.0041 293.4516 0002226 270.2533  89.8064 15.27573199137375"}, {"name": "STARLINK-31226", "line1": "1 58858U 24019F   26188.36528517  .00005982  00000+0  22685-3 0  9991", "line2": "2 58858  43.0033 293.2022 0001861 285.0412  75.0233 15.27565377137387"}, {"name": "STARLINK-31197", "line1": "1 58859U 24019G   26188.31146005  .00000644  00000+0  32929-4 0  9998", "line2": "2 58859  42.9965 293.6523 0001244 133.1117 226.9839 15.27580107137376"}, {"name": "STARLINK-31213", "line1": "1 58860U 24019H   26188.28575461  .00003389  00000+0  13265-3 0  9998", "line2": "2 58860  43.0049 293.4564 0002082 199.6323 160.4449 15.27577141137376"}]